SWAS                    
1 25560U 98071A   26068.53487068  .00004636  00000+0  29986-3 0  9991
2 25560  69.8952 124.3662 0004099  14.3215 345.8065 15.08888192482231
STARLINK-3114           
1 49426U 21104U   26068.74873098  .00000054  00000+0  21458-4 0  9993
2 49426  53.2177 228.8579 0001485 100.3258 259.7902 15.08836725238631
